[{
    "OBJECT_NAME": "STARLINK-1798",
    "OBJECT_ID": "2020-074AS",
    "EPOCH": "2022-07-20T13:51:46.090656",
    "MEAN_MOTION": 15.06398499,
    "ECCENTRICITY": 0.0001729,
    "INCLINATION": 53.0553,
    "RA_OF_ASC_NODE": 153.7558,
    "ARG_OF_PERICENTER": 64.6048,
    "MEAN_ANOMALY": 295.512,
    "EPHEMERIS_TYPE": 0,
    "CLASSIFICATION_TYPE": "U",
    "NORAD_CAT_ID": 46779,
    "ELEMENT_SET_NO": 999,
    "REV_AT_EPOCH": 9635,
    "BSTAR": 7.5341e-5,
    "MEAN_MOTION_DOT": 8.41e-6,
    "MEAN_MOTION_DDOT": 0
},{
    "OBJECT_NAME": "STARLINK-1832",
    "OBJECT_ID": "2020-074AT",
    "EPOCH": "2022-07-21T03:55:42.929184",
    "MEAN_MOTION": 15.06389778,
    "ECCENTRICITY": 0.0001569,
    "INCLINATION": 53.0536,
    "RA_OF_ASC_NODE": 151.1257,
    "ARG_OF_PERICENTER": 64.3438,
    "MEAN_ANOMALY": 295.7713,
    "EPHEMERIS_TYPE": 0,
    "CLASSIFICATION_TYPE": "U",
    "NORAD_CAT_ID": 46780,
    "ELEMENT_SET_NO": 999,
    "REV_AT_EPOCH": 9645,
    "BSTAR": -6.2188e-6,
    "MEAN_MOTION_DOT": -3.74e-6,
    "MEAN_MOTION_DDOT": 0
},{
    "OBJECT_NAME": "STARLINK-1834",
    "OBJECT_ID": "2020-074AU",
    "EPOCH": "2022-07-21T04:20:55.494240",
    "MEAN_MOTION": 15.06387575,
    "ECCENTRICITY": 0.000161,
    "INCLINATION": 53.0556,
    "RA_OF_ASC_NODE": 161.0496,
    "ARG_OF_PERICENTER": 68.9266,
    "MEAN_ANOMALY": 291.1895,
    "EPHEMERIS_TYPE": 0,
    "CLASSIFICATION_TYPE": "U",
    "NORAD_CAT_ID": 46781,
    "ELEMENT_SET_NO": 999,
    "REV_AT_EPOCH": 9632,
    "BSTAR": -7.5352e-5,
    "MEAN_MOTION_DOT": -1.403e-5,
    "MEAN_MOTION_DDOT": 0
},{
    "OBJECT_NAME": "STARLINK-1882",
    "OBJECT_ID": "2020-074AX",
    "EPOCH": "2022-07-20T13:45:07.117920",
    "MEAN_MOTION": 15.0638377,
    "ECCENTRICITY": 0.0001679,
    "INCLINATION": 53.0519,
    "RA_OF_ASC_NODE": 153.7531,
    "ARG_OF_PERICENTER": 75.6696,
    "MEAN_ANOMALY": 284.4479,
    "EPHEMERIS_TYPE": 0,
    "CLASSIFICATION_TYPE": "U",
    "NORAD_CAT_ID": 46784,
    "ELEMENT_SET_NO": 999,
    "REV_AT_EPOCH": 9630,
    "BSTAR": 0.00028986,
    "MEAN_MOTION_DOT": 4.037e-5,
    "MEAN_MOTION_DDOT": 0
},{
    "OBJECT_NAME": "STARLINK-1883",
    "OBJECT_ID": "2020-074AY",
    "EPOCH": "2022-07-21T03:45:04.945536",
    "MEAN_MOTION": 15.06398192,
    "ECCENTRICITY": 0.0001819,
    "INCLINATION": 53.0536,
    "RA_OF_ASC_NODE": 151.1478,
    "ARG_OF_PERICENTER": 63.2731,
    "MEAN_ANOMALY": 296.8444,
    "EPHEMERIS_TYPE": 0,
    "CLASSIFICATION_TYPE": "U",
    "NORAD_CAT_ID": 46785,
    "ELEMENT_SET_NO": 999,
    "REV_AT_EPOCH": 9640,
    "BSTAR": -1.2806e-5,
    "MEAN_MOTION_DOT": -4.72e-6,
    "MEAN_MOTION_DDOT": 0
},{
    "OBJECT_NAME": "STARLINK-1893",
    "OBJECT_ID": "2020-074AZ",
    "EPOCH": "2022-07-20T12:56:02.821056",
    "MEAN_MOTION": 15.06391252,
    "ECCENTRICITY": 0.0001602,
    "INCLINATION": 53.0559,
    "RA_OF_ASC_NODE": 133.9308,
    "ARG_OF_PERICENTER": 76.5741,
    "MEAN_ANOMALY": 283.5427,
    "EPHEMERIS_TYPE": 0,
    "CLASSIFICATION_TYPE": "U",
    "NORAD_CAT_ID": 46786,
    "ELEMENT_SET_NO": 999,
    "REV_AT_EPOCH": 9659,
    "BSTAR": 0.00021527,
    "MEAN_MOTION_DOT": 2.926e-5,
    "MEAN_MOTION_DDOT": 0
},{
    "OBJECT_NAME": "STARLINK-1899",
    "OBJECT_ID": "2020-074BA",
    "EPOCH": "2022-07-21T03:05:17.469888",
    "MEAN_MOTION": 15.06385046,
    "ECCENTRICITY": 0.0001645,
    "INCLINATION": 53.0555,
    "RA_OF_ASC_NODE": 131.2677,
    "ARG_OF_PERICENTER": 78.196,
    "MEAN_ANOMALY": 281.9213,
    "EPHEMERIS_TYPE": 0,
    "CLASSIFICATION_TYPE": "U",
    "NORAD_CAT_ID": 46787,
    "ELEMENT_SET_NO": 999,
    "REV_AT_EPOCH": 9668,
    "BSTAR": -7.5623e-5,
    "MEAN_MOTION_DOT": -1.407e-5,
    "MEAN_MOTION_DDOT": 0
},{
    "OBJECT_NAME": "STARLINK-1929",
    "OBJECT_ID": "2020-074BB",
    "EPOCH": "2022-07-21T02:54:40.555872",
    "MEAN_MOTION": 15.06385222,
    "ECCENTRICITY": 0.0001701,
    "INCLINATION": 53.0529,
    "RA_OF_ASC_NODE": 131.3116,
    "ARG_OF_PERICENTER": 54.6725,
    "MEAN_ANOMALY": 305.4423,
    "EPHEMERIS_TYPE": 0,
    "CLASSIFICATION_TYPE": "U",
    "NORAD_CAT_ID": 46788,
    "ELEMENT_SET_NO": 999,
    "REV_AT_EPOCH": 9668,
    "BSTAR": 4.0626e-5,
    "MEAN_MOTION_DOT": 3.23e-6,
    "MEAN_MOTION_DDOT": 0
},{
    "OBJECT_NAME": "STARLINK-1930",
    "OBJECT_ID": "2020-074BC",
    "EPOCH": "2022-07-20T16:19:06.000384",
    "MEAN_MOTION": 15.06390784,
    "ECCENTRICITY": 0.0001411,
    "INCLINATION": 53.0537,
    "RA_OF_ASC_NODE": 163.4523,
    "ARG_OF_PERICENTER": 62.2349,
    "MEAN_ANOMALY": 297.8783,
    "EPHEMERIS_TYPE": 0,
    "CLASSIFICATION_TYPE": "U",
    "NORAD_CAT_ID": 46789,
    "ELEMENT_SET_NO": 999,
    "REV_AT_EPOCH": 9651,
    "BSTAR": 6.558e-5,
    "MEAN_MOTION_DOT": 6.95e-6,
    "MEAN_MOTION_DDOT": 0
},{
    "OBJECT_NAME": "STARLINK-1933",
    "OBJECT_ID": "2020-074BE",
    "EPOCH": "2022-07-20T20:33:50.646816",
    "MEAN_MOTION": 15.0638773,
    "ECCENTRICITY": 0.0001817,
    "INCLINATION": 53.0542,
    "RA_OF_ASC_NODE": 162.4907,
    "ARG_OF_PERICENTER": 62.3245,
    "MEAN_ANOMALY": 297.7928,
    "EPHEMERIS_TYPE": 0,
    "CLASSIFICATION_TYPE": "U",
    "NORAD_CAT_ID": 46791,
    "ELEMENT_SET_NO": 999,
    "REV_AT_EPOCH": 9621,
    "BSTAR": -5.0684e-5,
    "MEAN_MOTION_DOT": -1.036e-5,
    "MEAN_MOTION_DDOT": 0
},{
    "OBJECT_NAME": "STARLINK-1934",
    "OBJECT_ID": "2020-074BF",
    "EPOCH": "2022-07-21T03:34:28.909344",
    "MEAN_MOTION": 15.0639295,
    "ECCENTRICITY": 0.0001896,
    "INCLINATION": 53.0547,
    "RA_OF_ASC_NODE": 151.1695,
    "ARG_OF_PERICENTER": 58.7278,
    "MEAN_ANOMALY": 301.3897,
    "EPHEMERIS_TYPE": 0,
    "CLASSIFICATION_TYPE": "U",
    "NORAD_CAT_ID": 46792,
    "ELEMENT_SET_NO": 999,
    "REV_AT_EPOCH": 9639,
    "BSTAR": -1.782e-5,
    "MEAN_MOTION_DOT": -5.47e-6,
    "MEAN_MOTION_DDOT": 0
}]
