STARLINK-1798           
1 46779U 20074AS  22201.57761679  .00000841  00000+0  75341-4 0  9997
2 46779  53.0553 153.7558 0001729  64.6048 295.5120 15.06398499 96358
STARLINK-1832           
1 46780U 20074AT  22202.16369131 -.00000374  00000+0 -62188-5 0  9991
2 46780  53.0536 151.1257 0001569  64.3438 295.7713 15.06389778 96452
STARLINK-1834           
1 46781U 20074AU  22202.18119785 -.00001403  00000+0 -75352-4 0  9992
2 46781  53.0556 161.0496 0001610  68.9266 291.1895 15.06387575 96326
STARLINK-1882           
1 46784U 20074AX  22201.57299905  .00004037  00000+0  28986-3 0  9994
2 46784  53.0519 153.7531 0001679  75.6696 284.4479 15.06383770 96307
STARLINK-1883           
1 46785U 20074AY  22202.15630724 -.00000472  00000+0 -12806-4 0  9994
2 46785  53.0536 151.1478 0001819  63.2731 296.8444 15.06398192 96402
STARLINK-1893           
1 46786U 20074AZ  22201.53892154  .00002926  00000+0  21527-3 0  9996
2 46786  53.0559 133.9308 0001602  76.5741 283.5427 15.06391252 96590
STARLINK-1899           
1 46787U 20074BA  22202.12867442 -.00001407  00000+0 -75623-4 0  9997
2 46787  53.0555 131.2677 0001645  78.1960 281.9213 15.06385046 96684
STARLINK-1929           
1 46788U 20074BB  22202.12130273  .00000323  00000+0  40626-4 0  9992
2 46788  53.0529 131.3116 0001701  54.6725 305.4423 15.06385222 96687
STARLINK-1930           
1 46789U 20074BC  22201.67993056  .00000695  00000+0  65580-4 0  9996
2 46789  53.0537 163.4523 0001411  62.2349 297.8783 15.06390784 96514
STARLINK-1933           
1 46791U 20074BE  22201.85683619 -.00001036  00000+0 -50684-4 0  9991
2 46791  53.0542 162.4907 0001817  62.3245 297.7928 15.06387730 96218
STARLINK-1934           
1 46792U 20074BF  22202.14894571 -.00000547  00000+0 -17820-4 0  9997
2 46792  53.0547 151.1695 0001896  58.7278 301.3897 15.06392950 96391
